$$SOE
2460147.500000000, A.D. 2023-Jul-22 00:00:00.0000, -4.203358760518873E+08, -2.596465148496409E+08, 3.420060490192962E+07,
2460154.500000000, A.D. 2023-Jul-29 00:00:00.0000, -4.153783859762229E+08, -2.679817207036119E+08, 3.565961923026644E+07,
2460161.500000000, A.D. 2023-Aug-05 00:00:00.0000, -4.102553113013415E+08, -2.762100769779317E+08, 3.710441485018079E+07,
2460168.500000000, A.D. 2023-Aug-12 00:00:00.0000, -4.049690496365603E+08, -2.843285411565660E+08, 3.853444759042117E+07,
2460175.500000000, A.D. 2023-Aug-19 00:00:00.0000, -3.995220493559064E+08, -2.923341255121458E+08, 3.994918112267122E+07,
2460182.500000000, A.D. 2023-Aug-26 00:00:00.0000, -3.939168083184646E+08, -3.002238975608031E+08, 4.134808708165169E+07,
2460189.500000000, A.D. 2023-Sep-02 00:00:00.0000, -3.881558726198699E+08, -3.079949805599772E+08, 4.273064517578641E+07,
2460196.500000000, A.D. 2023-Sep-09 00:00:00.0000, -3.822418353389136E+08, -3.156445540912079E+08, 4.409634328190905E+07,
2460203.500000000, A.D. 2023-Sep-16 00:00:00.0000, -3.761773351113015E+08, -3.231698547867043E+08, 4.544467750402194E+07,
2460210.500000000, A.D. 2023-Sep-23 00:00:00.0000, -3.699650541145376E+08, -3.305681769136379E+08, 4.677515218155418E+07,
2460217.500000000, A.D. 2023-Sep-30 00:00:00.0000, -3.636077158036623E+08, -3.378368716259661E+08, 4.808727997575854E+07,
2460224.500000000, A.D. 2023-Oct-07 00:00:00.0000, -3.571080847513152E+08, -3.449733454271889E+08, 4.938058220589784E+07,
2460231.500000000, A.D. 2023-Oct-14 00:00:00.0000, -3.504689675522763E+08, -3.519750611586404E+08, 5.065458906929611E+07,
2460238.500000000, A.D. 2023-Oct-21 00:00:00.0000, -3.436932115649512E+08, -3.588395399122540E+08, 5.190883958057509E+07,
2460245.500000000, A.D. 2023-Oct-28 00:00:00.0000, -3.367837029150101E+08, -3.655643616082506E+08, 5.314288154593328E+07,
2460252.500000000, A.D. 2023-Nov-04 00:00:00.0000, -3.297433650111692E+08, -3.721471650081816E+08, 5.435627162448789E+07,
2460259.500000000, A.D. 2023-Nov-11 00:00:00.0000, -3.225751573951356E+08, -3.785856477636456E+08, 5.554857541159689E+07,
2460266.500000000, A.D. 2023-Nov-18 00:00:00.0000, -3.152820747059777E+08, -3.848775665659927E+08, 5.671936751904245E+07,
2460273.500000000, A.D. 2023-Nov-25 00:00:00.0000, -3.078671456862370E+08, -3.910207373756933E+08, 5.786823164760369E+07,
2460280.500000000, A.D. 2023-Dec-02 00:00:00.0000, -3.003334322019482E+08, -3.970130357436699E+08, 5.899476064890482E+07,
2460287.500000000, A.D. 2023-Dec-09 00:00:00.0000, -2.926840281990315E+08, -4.028523972843897E+08, 6.009855656490208E+07,
2460294.500000000, A.D. 2023-Dec-16 00:00:00.0000, -2.849220583086918E+08, -4.085368182889591E+08, 6.117923061988090E+07,
2460301.500000000, A.D. 2023-Dec-23 00:00:00.0000, -2.770506757534704E+08, -4.140643557914903E+08, 6.223640318930066E+07,
2460308.500000000, A.D. 2023-Dec-30 00:00:00.0000, -2.690730608940411E+08, -4.194331260399283E+08, 6.326970395413679E+07,
2460315.500000000, A.D. 2024-Jan-06 00:00:00.0000, -2.609924221886879E+08, -4.246413037326406E+08, 6.427877221020344E+07,
2460322.500000000, A.D. 2024-Jan-13 00:00:00.0000, -2.528119963926297E+08, -4.296871238292185E+08, 6.526325689376880E+07,
2460329.500000000, A.D. 2024-Jan-20 00:00:00.0000, -2.445350467744830E+08, -4.345688828524044E+08, 6.622281646352595E+07,
2460336.500000000, A.D. 2024-Jan-27 00:00:00.0000, -2.361648613793633E+08, -4.392849390291319E+08, 6.715711887834147E+07,
2460343.500000000, A.D. 2024-Feb-03 00:00:00.0000, -2.277047517670777E+08, -4.438337122185689E+08, 6.806584163227886E+07,
2460350.500000000, A.D. 2024-Feb-10 00:00:00.0000, -2.191580519473639E+08, -4.482136839173694E+08, 6.894867179715118E+07,
2460357.500000000, A.D. 2024-Feb-17 00:00:00.0000, -2.105281173721656E+08, -4.524233973338150E+08, 6.980530605996716E+07,
2460364.500000000, A.D. 2024-Feb-24 00:00:00.0000, -2.018183239475797E+08, -4.564614575166781E+08, 7.063545075283197E+07,
2460371.500000000, A.D. 2024-Mar-02 00:00:00.0000, -1.930320670352037E+08, -4.603265315728786E+08, 7.143882186997005E+07,
2460378.500000000, A.D. 2024-Mar-09 00:00:00.0000, -1.841727603039202E+08, -4.640173490386949E+08, 7.221514505431396E+07,
2460385.500000000, A.D. 2024-Mar-16 00:00:00.0000, -1.752438340372791E+08, -4.675327022088994E+08, 7.296415553396073E+07,
2460392.500000000, A.D. 2024-Mar-23 00:00:00.0000, -1.662487330007081E+08, -4.708714453156400E+08, 7.368559810897048E+07,
2460399.500000000, A.D. 2024-Mar-30 00:00:00.0000, -1.571909161099335E+08, -4.740324925837648E+08, 7.437922739194897E+07,
2460406.500000000, A.D. 2024-Apr-06 00:00:00.0000, -1.480738576440176E+08, -4.770148185300258E+08, 7.504480800359823E+07,
2460413.500000000, A.D. 2024-Apr-13 00:00:00.0000, -1.389010464513575E+08, -4.798174596705517E+08, 7.568211446599616E+07,
2460420.500000000, A.D. 2024-Apr-20 00:00:00.0000, -1.296759841007757E+08, -4.824395149607963E+08, 7.629093109996673E+07,
2460427.500000000, A.D. 2024-Apr-27 00:00:00.0000, -1.204021834946596E+08, -4.848801455295210E+08, 7.687105201996787E+07,
2460434.500000000, A.D. 2024-May-04 00:00:00.0000, -1.110831678559539E+08, -4.871385744100286E+08, 7.742228116100262E+07,
2460441.500000000, A.D. 2024-May-11 00:00:00.0000, -1.017224698502268E+08, -4.892140863701800E+08, 7.794443230739406E+07,
2460448.500000000, A.D. 2024-May-18 00:00:00.0000, -9.232363076026919E+07, -4.911060278193712E+08, 7.843732911772999E+07,
2460455.500000000, A.D. 2024-May-25 00:00:00.0000, -8.289019968798174E+07, -4.928138067995921E+08, 7.890080514330727E+07,
2460462.500000000, A.D. 2024-Jun-01 00:00:00.0000, -7.342573272336458E+07, -4.943368931180946E+08, 7.933470383019257E+07,
2460469.500000000, A.D. 2024-Jun-08 00:00:00.0000, -6.393379183408479E+07, -4.956748186446279E+08, 7.973887848075652E+07,
2460476.500000000, A.D. 2024-Jun-15 00:00:00.0000, -5.441794307596444E+07, -4.968271772279707E+08, 8.011319218286575E+07,
2460483.500000000, A.D. 2024-Jun-22 00:00:00.0000, -4.488175512939666E+07, -4.977936230560826E+08, 8.045751789513052E+07,
2460490.500000000, A.D. 2024-Jun-29 00:00:00.0000, -3.532880028266730E+07, -4.985738692796930E+08, 8.077173873394895E+07,
2460497.500000000, A.D. 2024-Jul-06 00:00:00.0000, -2.576265521590439E+07, -4.991676893700278E+08, 8.105574801779170E+07,
2460504.500000000, A.D. 2024-Jul-13 00:00:00.0000, -1.618689963535492E+07, -4.995749183874490E+08, 8.130944912110640E+07,
2460511.500000000, A.D. 2024-Jul-20 00:00:00.0000, -6.605114743245547E+06, -4.997954530132771E+08, 8.153275541430037E+07,
2460518.500000000, A.D. 2024-Jul-27 00:00:00.0000, 2.979117800969956E+06, -4.998292513047198E+08, 8.172559027180332E+07,
2460525.500000000, A.D. 2024-Aug-03 00:00:00.0000, 1.256221670107469E+07, -4.996763325479929E+08, 8.188788709258704E+07,
2460532.500000000, A.D. 2024-Aug-10 00:00:00.0000, 2.214060179223717E+07, -4.993367772139292E+08, 8.201958931744945E+07,
2460539.500000000, A.D. 2024-Aug-17 00:00:00.0000, 3.171069480455772E+07, -4.988107269939772E+08, 8.212065044024642E+07,
2460546.500000000, A.D. 2024-Aug-24 00:00:00.0000, 4.126892015045435E+07, -4.980983849385332E+08, 8.219103400844799E+07,
2460553.500000000, A.D. 2024-Aug-31 00:00:00.0000, 5.081170585215382E+07, -4.972000157590643E+08, 8.223071359725580E+07,
2460560.500000000, A.D. 2024-Sep-07 00:00:00.0000, 6.033548497525246E+07, -4.961159461678666E+08, 8.223967273406209E+07,
2460567.500000000, A.D. 2024-Sep-14 00:00:00.0000, 6.983669765375175E+07, -4.948465642598418E+08, 8.221790484682149E+07,
2460574.500000000, A.D. 2024-Sep-21 00:00:00.0000, 7.931179167756391E+07, -4.933923175235038E+08, 8.216541345598572E+07,
2460581.500000000, A.D. 2024-Sep-28 00:00:00.0000, 8.875722115494242E+07, -4.917537127078765E+08, 8.208221239050812E+07,
2460588.500000000, A.D. 2024-Oct-05 00:00:00.0000, 9.816944691994664E+07, -4.899313175428426E+08, 8.196832569109686E+07,
2460595.500000000, A.D. 2024-Oct-12 00:00:00.0000, 1.075449383245363E+08, -4.879257613325767E+08, 8.182378747718877E+07,
2460602.500000000, A.D. 2024-Oct-19 00:00:00.0000, 1.168801746643991E+08, -4.857377346920583E+08, 8.164864191582246E+07,
2460609.500000000, A.D. 2024-Oct-26 00:00:00.0000, 1.261716462066561E+08, -4.833679892267703E+08, 8.144294322948608E+07,
2460616.500000000, A.D. 2024-Nov-02 00:00:00.0000, 1.354158550779027E+08, -4.808173373029621E+08, 8.120675570697014E+07,
2460623.500000000, A.D. 2024-Nov-09 00:00:00.0000, 1.446093161104831E+08, -4.780866518873935E+08, 8.094015371009994E+07,
2460630.500000000, A.D. 2024-Nov-16 00:00:00.0000, 1.537485576739893E+08, -4.751768664563519E+08, 8.064322167422748E+07,
2460637.500000000, A.D. 2024-Nov-23 00:00:00.0000, 1.628301225397118E+08, -4.720889750240362E+08, 8.031605409441404E+07,
2460644.500000000, A.D. 2024-Nov-30 00:00:00.0000, 1.718505689869043E+08, -4.688240323331907E+08, 7.995875547506662E+07,
2460651.500000000, A.D. 2024-Dec-07 00:00:00.0000, 1.808064725706187E+08, -4.653831537876387E+08, 7.957144023930071E+07,
2460658.500000000, A.D. 2024-Dec-14 00:00:00.0000, 1.896944278624275E+08, -4.617675139028435E+08, 7.915423276148543E+07,
2460665.500000000, A.D. 2024-Dec-21 00:00:00.0000, 1.985110478450499E+08, -4.579783445145613E+08, 7.870726763417248E+07,
2460672.500000000, A.D. 2024-Dec-28 00:00:00.0000, 2.072529629333599E+08, -4.540169357113401E+08, 7.823068974565952E+07,
2460679.500000000, A.D. 2025-Jan-04 00:00:00.0000, 2.159168222198422E+08, -4.498846371137304E+08, 7.772465412414043E+07,
2460686.500000000, A.D. 2025-Jan-11 00:00:00.0000, 2.244992951240426E+08, -4.455828578402762E+08, 7.718932585145292E+07,
2460693.500000000, A.D. 2025-Jan-18 00:00:00.0000, 2.329970725295281E+08, -4.411130660789148E+08, 7.662488005572663E+07,
2460700.500000000, A.D. 2025-Jan-25 00:00:00.0000, 2.414068676522035E+08, -4.364767887379529E+08, 7.603150192203367E+07,
2460707.500000000, A.D. 2025-Feb-01 00:00:00.0000, 2.497254168297995E+08, -4.316756112063172E+08, 7.540938670138468E+07,
2460714.500000000, A.D. 2025-Feb-08 00:00:00.0000, 2.579494802911360E+08, -4.267111772029109E+08, 7.475873971444146E+07,
$$EOE